{"type":"FeatureCollection","metadata":{"source":"OpenStreetMap (© OpenStreetMap contributors, ODbL) via Overpass; scripts/import-osm.ts","osmTimestamp":"2026-09-26T03:20:23Z","generatedAt":"2026-09-27T01:47:01.449Z","note":"Track with a future opening_date; for scenarios"},"features":[{"type":"Feature","properties":{"type":"segment","id":"w695556289.0","kind":"main","lines":[],"from":"n6482772087","to":"n9406761222","length":337.2,"osmWay":695556289,"name":"Broadway Extension","layer":1,"bridge":true},"geometry":{"type":"LineString","coordinates":[[-123.08195,49.2663107],[-123.0823686,49.2663898],[-123.0831394,49.266511],[-123.0834825,49.266588],[-123.0842647,49.266787],[-123.0849316,49.2669616],[-123.0855904,49.267107],[-123.0863626,49.2672488]]}},{"type":"Feature","properties":{"type":"segment","id":"w695556289.1","kind":"main","lines":[],"from":"n9406761222","to":"n6531411762","length":213.4,"osmWay":695556289,"name":"Broadway Extension","layer":1,"bridge":true},"geometry":{"type":"LineString","coordinates":[[-123.0863626,49.2672488],[-123.0892054,49.2677407]]}},{"type":"Feature","properties":{"type":"segment","id":"w695556289.2","kind":"main","lines":[],"from":"n6531411762","to":"n8978206252","length":186.66,"osmWay":695556289,"name":"Broadway Extension","layer":1,"bridge":true},"geometry":{"type":"LineString","coordinates":[[-123.0892054,49.2677407],[-123.091703,49.2681429]]}},{"type":"Feature","properties":{"type":"segment","id":"w695556290.0","kind":"main","lines":[],"from":"n9406761221","to":"n6531411739","length":193.81,"osmWay":695556290,"name":"Broadway Extension","layer":1,"bridge":true},"geometry":{"type":"LineString","coordinates":[[-123.0917289,49.2680988],[-123.089145,49.267657]]}},{"type":"Feature","properties":{"type":"segment","id":"w695556290.1","kind":"main","lines":[],"from":"n6531411739","to":"n9406761223","length":206.18,"osmWay":695556290,"name":"Broadway Extension","layer":1,"bridge":true},"geometry":{"type":"LineString","coordinates":[[-123.089145,49.267657],[-123.0863964,49.2671867]]}},{"type":"Feature","properties":{"type":"segment","id":"w695556290.2","kind":"main","lines":[],"from":"n9406761223","to":"n6531411722","length":336.82,"osmWay":695556290,"name":"Broadway Extension","layer":1,"bridge":true},"geometry":{"type":"LineString","coordinates":[[-123.0863964,49.2671867],[-123.085625,49.2670667],[-123.0849563,49.2669206],[-123.0842482,49.2667458],[-123.0835153,49.2665471],[-123.0831727,49.2664758],[-123.0819771,49.2662777]]}},{"type":"Feature","properties":{"type":"segment","id":"w992065766.0","kind":"main","lines":[],"from":"n14058334475","to":"n8978206251","length":127.43,"osmWay":992065766,"name":"Broadway Extension"},"geometry":{"type":"LineString","coordinates":[[-123.0942292,49.2677038],[-123.0938986,49.2679228],[-123.0936834,49.2680543],[-123.0934178,49.2681491],[-123.0930798,49.2682179],[-123.0927469,49.2682314]]}},{"type":"Feature","properties":{"type":"segment","id":"w992065767.0","kind":"main","lines":[],"from":"n6531425391","to":"n14058334474","length":135.15,"osmWay":992065767,"name":"Broadway Extension"},"geometry":{"type":"LineString","coordinates":[[-123.0927472,49.2683036],[-123.0931319,49.2682931],[-123.0934684,49.2682329],[-123.0937526,49.2681357],[-123.094018,49.2680028],[-123.0943474,49.267781]]}},{"type":"Feature","properties":{"type":"segment","id":"w1019919817.0","kind":"pocket","lines":[],"from":"n9406761223","to":"n9406761224","length":30.84,"osmWay":1019919817,"name":"Great Northern Pocket","layer":1,"bridge":true},"geometry":{"type":"LineString","coordinates":[[-123.0863964,49.2671867],[-123.0867916,49.2672889]]}},{"type":"Feature","properties":{"type":"segment","id":"w1019919817.1","kind":"pocket","lines":[],"from":"n9406761224","to":"n9406761225","length":139.45,"osmWay":1019919817,"name":"Great Northern Pocket","layer":1,"bridge":true},"geometry":{"type":"LineString","coordinates":[[-123.0867916,49.2672889],[-123.0880826,49.2675119],[-123.0886502,49.267608]]}},{"type":"Feature","properties":{"type":"segment","id":"w1019919817.2","kind":"pocket","lines":[],"from":"n9406761225","to":"n6531411762","length":42.9,"osmWay":1019919817,"name":"Great Northern Pocket","layer":1,"bridge":true},"geometry":{"type":"LineString","coordinates":[[-123.0886502,49.267608],[-123.0892054,49.2677407]]}},{"type":"Feature","properties":{"type":"segment","id":"w1019919818.0","kind":"pocket","lines":[],"from":"n9406761222","to":"n9406761224","length":31.45,"osmWay":1019919818,"name":"Great Northern Pocket","layer":1,"bridge":true},"geometry":{"type":"LineString","coordinates":[[-123.0863626,49.2672488],[-123.0867916,49.2672889]]}},{"type":"Feature","properties":{"type":"segment","id":"w1019919819.0","kind":"pocket","lines":[],"from":"n6531411739","to":"n9406761225","length":36.31,"osmWay":1019919819,"name":"Great Northern Pocket","layer":1,"bridge":true},"geometry":{"type":"LineString","coordinates":[[-123.089145,49.267657],[-123.0886502,49.267608]]}},{"type":"Feature","properties":{"type":"segment","id":"w1033414704.0","kind":"main","lines":[],"from":"n8978206251","to":"n13205175979","length":66.65,"osmWay":1033414704,"name":"Broadway Extension"},"geometry":{"type":"LineString","coordinates":[[-123.0927469,49.2682314],[-123.092532,49.2682182],[-123.0918462,49.268118]]}},{"type":"Feature","properties":{"type":"segment","id":"w1033414705.0","kind":"main","lines":[],"from":"n8978206252","to":"n6531425391","length":77.94,"osmWay":1033414705,"name":"Broadway Extension"},"geometry":{"type":"LineString","coordinates":[[-123.091703,49.2681429],[-123.0924951,49.2682803],[-123.0927472,49.2683036]]}},{"type":"Feature","properties":{"type":"segment","id":"w1498398959.0","kind":"main","lines":[],"from":"n13205175979","to":"n9406761221","length":8.77,"osmWay":1498398959,"name":"Broadway Extension"},"geometry":{"type":"LineString","coordinates":[[-123.0918462,49.268118],[-123.0917289,49.2680988]]}},{"type":"Feature","properties":{"type":"segment","id":"w1545655560.0","kind":"main","lines":[],"from":"n14058334474","to":"n9128645382","length":118.33,"osmWay":1545655560,"name":"Broadway Extension","layer":-1,"tunnel":true},"geometry":{"type":"LineString","coordinates":[[-123.0943474,49.267781],[-123.0954824,49.2670169]]}},{"type":"Feature","properties":{"type":"segment","id":"w1545655561.0","kind":"main","lines":[],"from":"n9147286913","to":"n14058334475","length":118.06,"osmWay":1545655561,"name":"Broadway Extension","layer":-1,"tunnel":true},"geometry":{"type":"LineString","coordinates":[[-123.095371,49.2669474],[-123.0942292,49.2677038]]}}]}
